[{"OBJECT_NAME":"YAOGAN-30 06A","OBJECT_ID":"2019-045A","EPOCH":"2026-03-09T19:51:27.981216","MEAN_MOTION":15.02102304,"ECCENTRICITY":0.00031894,"INCLINATION":34.9928,"RA_OF_ASC_NODE":215.4318,"ARG_OF_PERICENTER":139.0512,"MEAN_ANOMALY":221.0436,"EPHEMERIS_TYPE":0,"CLASSIFICATION_TYPE":"U","NORAD_CAT_ID":44449,"ELEMENT_SET_NO":999,"REV_AT_EPOCH":36166,"BSTAR":0.00032896599,"MEAN_MOTION_DOT":4.384e-5,"MEAN_MOTION_DDOT":0},{"OBJECT_NAME":"UNKNOWN","OBJECT_ID":"","EPOCH":"2026-03-07T16:41:41.743392","MEAN_MOTION":15.0507428,"ECCENTRICITY":0.0006664,"INCLINATION":85.8737,"RA_OF_ASC_NODE":153.9139,"ARG_OF_PERICENTER":326.6675,"MEAN_ANOMALY":33.4139,"EPHEMERIS_TYPE":0,"CLASSIFICATION_TYPE":"U","NORAD_CAT_ID":82448,"ELEMENT_SET_NO":999,"REV_AT_EPOCH":44981,"BSTAR":0.00062595,"MEAN_MOTION_DOT":8.933e-5,"MEAN_MOTION_DDOT":0}]
